ALCOMSAT 1              
1 43039U 17078A   18003.26854662 -.00000193  00000-0  00000+0 0  9996
2 43039   0.0415 210.7099 0002824  96.8051 227.2384  1.00270827   346
CZ-3B R/B               
1 43040U 17078B   17363.68427715  .00065491 -86654-6  28381-3 0  9990
2 43040  26.3032 320.7552 7525326 189.0383 139.1651  2.03320999   378
2017-071E               
1 43041U 17071E   18003.88184615  .00004870  00000-0  13734-3 0  9991
2 43041  51.6397 121.1873 0000032 282.2877  77.8103 15.38260841  6605
2017-071F               
1 43042U 17071F   18003.89016640  .00002339  00000-0  72519-4 0  9990
2 43042  51.6395 121.2404 0005654  36.0722 324.0642 15.37750206  4313
2017-071G               
1 43043U 17071G   18003.89004972  .00002397  00000-0  74047-4 0  9998
2 43043  51.6396 121.2397 0005617  36.0535 324.0827 15.37758348  4283
2017-071H               
1 43044U 17071H   18003.56383831  .00005013  00000-0  14288-3 0  9995
2 43044  51.6395 122.8120 0005435  33.4555 326.6771 15.37865383  4234
2017-071J               
1 43045U 17071J   18003.49277189  .00004902  00000-0  13832-3 0  9996
2 43045  51.6395 123.0889 0004581  23.2508 336.8683 15.38233869  4274
2017-071K               
1 43046U 17071K   18003.88162464  .00004581  00000-0  12979-3 0  9993
2 43046  51.6405 121.1879 0004373  22.9427 337.1752 15.38274388  4339
2017-071L               
1 43047U 17071L   18003.49898191  .00004565  00000-0  13098-3 0  9999
2 43047  51.6398 123.1295 0003771  63.5746 296.5624 15.37884240  4262
2017-071M               
1 43048U 17071M   18003.49910943  .00004325  00000-0  12475-3 0  9992
2 43048  51.6401 123.1311 0003739  63.7086 296.4282 15.37858015  4260
2017-071N               
1 43049U 17071N   18003.88680394  .00002387  00000-0  73379-4 0  9997
2 43049  51.6397 121.2189 0003158  56.8631 303.2655 15.37924201  4274
2017-071P               
1 43050U 17071P   18003.82119948  .00003784  00000-0  11005-3 0  9994
2 43050  51.6398 121.5318 0003054  53.6623 306.4642 15.37972051  4261
2017-071Q               
1 43051U 17071Q   18003.82313413  .00004353  00000-0  12523-3 0  9997
2 43051  51.6397 121.5440 0001446 153.8504 206.2553 15.37918291  4265
2017-071R               
1 43052U 17071R   18003.49597237  .00002763  00000-0  83139-4 0  9994
2 43052  51.6399 123.1101 0003033  53.1064 307.0198 15.37983997  4212
2017-071S               
1 43053U 17071S   18003.49851485  .00004242  00000-0  12243-3 0  9994
2 43053  51.6398 123.1262 0001493 153.7295 206.3764 15.37881407  4225
2017-071T               
1 43054U 17071T   18003.81727712  .00003910  00000-0  11242-3 0  9995
2 43054  51.6397 121.5060 0000058 120.0007 240.0983 15.38224311  4276
GALILEO 19              
1 43055U 17079A   18002.70752653 -.00000052  00000-0  00000-0 0  9995
2 43055  56.9765 306.3322 0003063 229.8390 130.1342  1.69744134   352
GALILEO 20              
1 43056U 17079B   17362.00000000 -.00000041  00000-0  00000-0 0  9997
2 43056  56.9198 306.2608 0002051 334.3661 188.4725  1.70862017   240
GALILEO 21              
1 43057U 17079C   18003.47625955 -.00000052  00000-0  00000+0 0  9995
2 43057  57.0014 306.2994 0001825 340.2497 279.1262  1.71672936   366
GALILEO 22              
1 43058U 17079D   17362.00000000 -.00000041  00000-0  00000-0 0  9999
2 43058  56.9136 306.2585 0000227 225.1318 330.6562  1.71040522   258
ARIANE 5 R/B            
1 43059U 17079E   18002.37436658 -.00000051  00000-0  00000-0 0  9995
2 43059  56.9244 306.2688 0002353 242.6708 117.3050  1.73187701   358
DRAGON CRS-13           
1 43060U 17080A   18002.64937503  .00001733  00000-0  33272-4 0  9992
2 43060  51.6404 123.9633 0002828 329.6971 162.7178 15.54246569 92773
DRAGON CRS-13 DEB       
1 43061U 17080B   17353.81187793  .08543521  12275-4  16801-2 0  9990
2 43061  51.6245 191.4575 0035121  66.2476 313.8351 16.28765966   677
SOYUZ-MS 07             
1 43063U 17081A   18002.64937503  .00001733  00000-0  33272-4 0  9996
2 43063  51.6404 123.9633 0002828 329.6971 162.7178 15.54246569  2520
GCOM-C (SHIKISAI)       
1 43065U 17082A   18003.51327053 -.00000045  00000-0  00000-0 0  9994
2 43065  98.6885  77.0835 0002936 149.2755 210.8604 14.29771854  1647
SLATS (TSUBAME)         
1 43066U 17082B   18003.85374566 -.00000088  00000-0  00000+0 0  9999
2 43066  98.3160  78.6769 0123750  72.3362 289.1339 15.07762532  1769
H-2A R/B                
1 43067U 17082C   18003.20342051  .00001135  00000-0  70098-4 0  9995
2 43067  98.3225  77.9016 0125966  77.6121 283.9169 15.05948983  1667
H-2A DEB                
1 43068U 17082D   18003.19129357  .00000846  00000-0  73475-4 0  9996
2 43068  98.0613  77.3109 0238437  93.4434 269.4116 14.80471158  1640
H-2A DEB                
1 43069U 17082E   18003.17250628  .00000312  00000-0  11775-3 0  9993
2 43069  98.5191  76.8133 0032291  93.3743 267.1146 14.37705392  1594
IRIDIUM 135             
1 43070U 17083A   18003.52551793  .00000030  00000-0  13991-5 0  9993
2 43070  86.5858 171.9383 0001312 119.9921 240.1422 14.63546071  1695
IRIDIUM 138             
1 43071U 17083B   18003.50438219  .00000021  00000-0 -80921-6 0  9998
2 43071  86.6932 171.9520 0012507 214.9172 145.1232 14.83277345  1695
IRIDIUM 116             
1 43072U 17083C   18003.50404425  .00000049  00000-0  26068-5 0  9991
2 43072  86.6942 171.9538 0012397 213.7141 146.3296 14.83321702  1696
IRIDIUM 130             
1 43073U 17083D   18003.52062449  .00000048  00000-0  59269-5 0  9998
2 43073  86.5267 171.9343 0000970  86.1093 274.0226 14.57111931  1685
IRIDIUM 151             
1 43074U 17083E   18003.50858697  .00000148  00000-0  22452-4 0  9999
2 43074  86.5876 171.9504 0011608 216.4077 143.6349 14.66579013  1687
IRIDIUM 134             
1 43075U 17083F   18003.47701784  .00000010  00000-0 -26734-5 0  9997
2 43075  86.5272 171.9332 0000840  78.1751 281.9552 14.58677429  1677
IRIDIUM 137             
1 43076U 17083G   18003.50180758  .00000041  00000-0  16819-5 0  9990
2 43076  86.6890 171.9433 0013195 209.0518 150.9973 14.83613060  1682
IRIDIUM 141             
1 43077U 17083H   18003.50131355  .00000056  00000-0  34136-5 0  9998
2 43077  86.6895 171.9445 0013288 207.6371 152.4148 14.83677513  1689
IRIDIUM 153             
1 43078U 17083J   18003.50098020  .00000042  00000-0  16981-5 0  9993
2 43078  86.6900 171.9455 0013203 206.6146 153.4401 14.83720952  1683
IRIDIUM 131             
1 43079U 17083K   18003.49857379  .00000047  00000-0  53935-5 0  9997
2 43079  86.5293 171.9393 0000751  92.2191 267.9104 14.57964567  1675
LKW-2                   
1 43080U 17084A   18003.46367105 -.00000071  00000-0  00000+0 0  9997
2 43080  97.4612  81.5810 0009914 221.7217 195.0239 15.23330295  1726
YAOGAN-30 G             
1 43081U 17085A   18003.90745047  .00000549  00000-0  55306-4 0  9996
2 43081  35.0004 311.5693 0007306 320.7399  39.2813 14.92384513  1363
YAOGAN-30 H             
1 43082U 17085B   18003.91460246 -.00002990  00000-0 -30342-3 0  9999
2 43082  34.9987 311.6268 0006592  20.7020 339.5163 14.89767857  1350
YAOGAN-30 J             
1 43083U 17085C   18003.85419852  .00001082  00000-0  12132-3 0  9996
2 43083  35.0000 312.0813 0006396 296.7153  63.5366 14.87053701  1357
CZ-2C R/B               
1 43084U 17085D   18003.89674759  .00000520  00000-0  34645-4 0  9990
2 43084  34.6701 309.9119 0102324  61.9481 299.1544 15.04006169  1372
ANGOSAT 1               
1 43087U 17086A   18003.65453846  .00000047  00000-0  00000-0 0  9998
2 43087   0.0720 103.7369 0018251 100.1158 167.3570  0.99375461    75
FREGAT R/B              
1 43088U 17086B   18002.67677273 -.00000140  00000-0  00000+0 0  9996
2 43088   0.2085  11.5042 0104727  34.2295 315.1144  0.98390388    73
FREGAT DEB [TANK]       
1 43089U 17086C   18003.30429568  .00009074  30442-5  29912-3 0  9999
2 43089  50.4380  10.9319 2215881  19.7367 347.7017 10.99323950   841
SL-23 R/B               
1 43090U 17086D   18003.33613919  .00553507  10994-4  23986-3 0  9998
2 43090  51.3737 350.8899 0253025  88.4607 274.5204 15.78513893  1191
SL-23 DEB               
1 43091U 17086E   18003.18960771  .00858364  99758-5  82469-3 0  9999
2 43091  51.3889 354.6246 0432172 101.0228 263.9619 15.30519160  1206
SL-23 DEB               
1 43092U 17086F   18003.18581398  .00881673  99920-5  84358-3 0  9993
2 43092  51.3517 353.9667 0428109 101.8233 263.1010 15.31481472  1171
SL-23 DEB               
1 43093U 17086G   18003.85629703  .01370260  10315-4  66628-3 0  9997
2 43093  51.3417 350.1470 0391564  94.6396 269.9426 15.46019333  1269
SL-23 DEB               
1 43094U 17086H   18003.84540850  .01767769  10421-4  75005-3 0  9993
2 43094  51.3825 350.7434 0374544  93.5798 270.6342 15.51057160  1354
CZ-2D DEB               
1 43095U 17084B   18003.38437969  .00002261  00000-0  97046-4 0  9993
2 43095  97.4600  81.5070 0009802 232.8000 127.2361 15.23723462  1181
CZ-2D DEB               
1 43096U 17084C   18003.43941504  .00002421  00000-0  99205-4 0  9992
2 43096  97.4811  81.6130 0016611 249.7141 110.2314 15.25162849  1192
CZ-2D DEB               
1 43097U 17084D   18003.43377631  .00004996  00000-0  14351-3 0  9994
2 43097  97.3569  81.6254 0053891 286.7617  72.7718 15.34851044  1191
